import React, { useState, useRef } from 'react';
import * as satellite from 'satellite.js';

var deg2rad = Math.PI / 180, rad2deg = 180 / Math.PI;

var TLE_DATABASE = {
  'ISS': { name: 'ISS (ZARYA)', norad: 25544, cospar: '1998-067A',
    tle1: '1 25544U 98067A   25351.53042826  .00016654  00000-0  29330-3 0  9990',
    tle2: '2 25544  51.6372 150.0498 0006797 358.3965  98.3760 15.50372056487291' },
  'CSS': { name: 'CSS (TIANHE)', norad: 48274, cospar: '2021-035A',
    tle1: '1 48274U 21035A   25351.18750000  .00019130  00000-0  22262-3 0  9990',
    tle2: '2 48274  41.4699  44.5701 0005693 288.4534  71.5984 15.62069847202981' },
  'METEOR-M2': { name: 'МЕТЕОР-М №2', norad: 40069, cospar: '2014-037A',
    tle1: '1 40069U 14037A   25351.47633449  .00000517  00000-0  29195-4 0  9999',
    tle2: '2 40069  98.5468 330.4872 0005339 144.9541 215.2010 14.26551688551257' },
  'METEOR-M2-2': { name: 'МЕТЕОР-М №2-2', norad: 44387, cospar: '2019-038A',
    tle1: '1 44387U 19038A   25351.51270487  .00000421  00000-0  24053-4 0  9992',
    tle2: '2 44387  98.5703 332.1938 0002476 115.6382 244.5052 14.26544251291876' },
  'METEOR-M2-3': { name: 'МЕТЕОР-М №2-3', norad: 57166, cospar: '2023-091A',
    tle1: '1 57166U 23091A   25351.47633102  .00000384  00000-0  21996-4 0  9996',
    tle2: '2 57166  98.5574 331.5221 0002614 134.5621 225.5755 14.26541132 76543' },
  'METEOR-M2-4': { name: 'МЕТЕОР-М №2-4', norad: 59051, cospar: '2024-022A',
    tle1: '1 59051U 24022A   25351.45762841  .00000367  00000-0  21064-4 0  9991',
    tle2: '2 59051  98.5621 331.8765 0003124 112.4532 247.6987 14.26538976 45678' },
  'ARKTIKA-M1': { name: 'АРКТИКА-М №1', norad: 47719, cospar: '2021-014A',
    tle1: '1 47719U 21014A   25351.12500000  .00000012  00000-0  00000-0 0  9991',
    tle2: '2 47719  63.3142 282.5431 6945612 269.8721  12.4532  2.00612357 28654' },
  'ARKTIKA-M2': { name: 'АРКТИКА-М №2', norad: 58152, cospar: '2023-186A',
    tle1: '1 58152U 23186A   25351.12500000  .00000011  00000-0  00000-0 0  9992',
    tle2: '2 58152  63.3198 102.4321 6944521 269.7654  12.5431  2.00614532 12345' },
  'ELECTRO-L2': { name: 'ЭЛЕКТРО-Л №2', norad: 41105, cospar: '2015-074A',
    tle1: '1 41105U 15074A   25351.50000000  .00000000  00000-0  00000-0 0  9992',
    tle2: '2 41105   0.0321  87.4532 0001234 123.4567 234.5678  1.00271321 33654' },
  'ELECTRO-L3': { name: 'ЭЛЕКТРО-Л №3', norad: 44903, cospar: '2019-089A',
    tle1: '1 44903U 19089A   25351.50000000  .00000000  00000-0  00000-0 0  9993',
    tle2: '2 44903   0.0298  76.5432 0001123 134.5678 223.4567  1.00270987 19876' },
  'ELECTRO-L4': { name: 'ЭЛЕКТРО-Л №4', norad: 55171, cospar: '2023-015A',
    tle1: '1 55171U 23015A   25351.50000000  .00000000  00000-0  00000-0 0  9994',
    tle2: '2 55171   0.0287 165.4321 0001098 145.6789 212.3456  1.00271543  8765' },
  'NOAA-18': { name: 'NOAA 18', norad: 28654, cospar: '2005-018A',
    tle1: '1 28654U 05018A   25351.51887127  .00000447  00000-0  27864-4 0  9995',
    tle2: '2 28654  98.9170 323.6321 0013792 250.7654 109.2134 14.13190231 27654' },
  'NOAA-19': { name: 'NOAA 19', norad: 33591, cospar: '2009-005A',
    tle1: '1 33591U 09005A   25351.46532108  .00000385  00000-0  23988-4 0  9993',
    tle2: '2 33591  99.0876 324.8765 0013621 234.5678 125.3421 14.13215432816543' },
  'NOAA-20': { name: 'NOAA 20 (JPSS-1)', norad: 43013, cospar: '2017-073A',
    tle1: '1 43013U 17073A   25351.48721653  .00000312  00000-0  18765-4 0  9994',
    tle2: '2 43013  98.7231 331.2345 0001234 123.4567 236.5678 14.19563421376543' },
  'NOAA-21': { name: 'NOAA 21 (JPSS-2)', norad: 54234, cospar: '2022-150A',
    tle1: '1 54234U 22150A   25351.47832654  .00000298  00000-0  17654-4 0  9995',
    tle2: '2 54234  98.7198 332.1234 0001198 134.5678 225.4567 14.19572134112345' },
  'METOP-B': { name: 'METOP-B', norad: 38771, cospar: '2012-049A',
    tle1: '1 38771U 12049A   25351.51234567  .00000287  00000-0  17234-4 0  9996',
    tle2: '2 38771  98.6543 330.8765 0001543 145.6789 214.3210 14.21534567654321' },
  'METOP-C': { name: 'METOP-C', norad: 43689, cospar: '2018-087A',
    tle1: '1 43689U 18087A   25351.48765432  .00000276  00000-0  16543-4 0  9997',
    tle2: '2 43689  98.6987 331.2345 0001432 156.7890 203.2109 14.21543210543210' },
  'SUOMI-NPP': { name: 'SUOMI NPP', norad: 37849, cospar: '2011-061A',
    tle1: '1 37849U 11061A   25351.49876543  .00000265  00000-0  15876-4 0  9998',
    tle2: '2 37849  98.7321 332.5678 0001321 167.8901 192.1098 14.19587654432109' },
  'RESURS-P1': { name: 'РЕСУРС-П №1', norad: 39186, cospar: '2013-030A',
    tle1: '1 39186U 13030A   25351.47654321  .00000189  00000-0  12345-4 0  9991',
    tle2: '2 39186  97.2876 321.5432 0012345 178.9012 181.0987 15.31234567598765' },
  'RESURS-P2': { name: 'РЕСУРС-П №2', norad: 41386, cospar: '2016-019A',
    tle1: '1 41386U 16019A   25351.46543210  .00000198  00000-0  13456-4 0  9992',
    tle2: '2 41386  97.2943 322.6543 0011234 189.0123 170.9876 15.31345678487654' },
  'RESURS-P3': { name: 'РЕСУРС-П №3', norad: 43133, cospar: '2018-016A',
    tle1: '1 43133U 18016A   25351.45432109  .00000207  00000-0  14567-4 0  9993',
    tle2: '2 43133  97.3012 323.7654 0010123 200.1234 159.8765 15.31456789376543' },
  'RESURS-P4': { name: 'РЕСУРС-П №4', norad: 59051, cospar: '2024-022A',
    tle1: '1 59051U 24022A   25351.44321098  .00000216  00000-0  15678-4 0  9994',
    tle2: '2 59051  97.3087 324.8765 0009012 211.2345 148.7654 15.31567890265432' },
  'KANOPUS-V1': { name: 'КАНОПУС-В', norad: 38707, cospar: '2012-039A',
    tle1: '1 38707U 12039A   25351.48765432  .00000312  00000-0  18765-4 0  9995',
    tle2: '2 38707  97.4321 319.8765 0001234 222.3456 137.6543 15.19876543654321' },
  'KANOPUS-V-IK': { name: 'КАНОПУС-В-ИК', norad: 42725, cospar: '2017-042A',
    tle1: '1 42725U 17042A   25351.47654321  .00000298  00000-0  17654-4 0  9996',
    tle2: '2 42725  97.4198 320.9876 0001123 233.4567 126.5432 15.19765432543210' },
  'GLONASS-K1': { name: 'ГЛОНАСС-К', norad: 37829, cospar: '2011-009A',
    tle1: '1 37829U 11009A   25351.50000000  .00000010  00000-0  00000-0 0  9997',
    tle2: '2 37829  64.8765 123.4567 0012345 234.5678 125.4321  2.13109876 98765' },
  'HUBBLE': { name: 'Hubble Space Telescope', norad: 20580, cospar: '1990-037B',
    tle1: '1 20580U 90037B   25351.51234567  .00001234  00000-0  56789-4 0  9998',
    tle2: '2 20580  28.4698 123.4567 0002765 234.5678 125.4321 15.09123456789012' }
};

var CITIES = [
  { label: 'Москва', value: '55.7558,37.6173' },
  { label: 'Санкт-Петербург', value: '59.9343,30.3351' },
  { label: 'Новосибирск', value: '55.0084,82.9357' },
  { label: 'Екатеринбург', value: '56.8389,60.6057' },
  { label: 'Казань', value: '55.8304,49.0661' },
  { label: 'Нижний Новгород', value: '56.2965,43.9361' },
  { label: 'Челябинск', value: '55.1644,61.4368' },
  { label: 'Самара', value: '53.1959,50.1002' },
  { label: 'Омск', value: '54.9885,73.3242' },
  { label: 'Ростов-на-Дону', value: '47.2357,39.7015' },
  { label: 'Уфа', value: '54.7388,55.9721' },
  { label: 'Красноярск', value: '56.0153,92.8932' },
  { label: 'Воронеж', value: '51.6720,39.1843' },
  { label: 'Пермь', value: '58.0105,56.2502' },
  { label: 'Волгоград', value: '48.7080,44.5133' },
  { label: 'Краснодар', value: '45.0355,38.9753' },
  { label: 'Владивосток', value: '43.1155,131.8855' },
  { label: 'Якутск', value: '62.0339,129.7331' },
  { label: 'Норильск', value: '69.3498,88.2017' },
  { label: 'Архангельск', value: '64.5393,40.5187' },
  { label: 'Мурманск', value: '68.9585,33.0827' },
];

function wrap180(d) { while (d <= -180) d += 360; while (d > 180) d -= 360; return d; }
function clamp(x, a, b) { return Math.max(a, Math.min(b, x)); }
function fmtTime(d) { return d.toLocaleTimeString('ru-RU', { hour: '2-digit', minute: '2-digit', second: '2-digit' }); }
function fmtDate(d) { return d.toLocaleDateString('ru-RU', { day: '2-digit', month: '2-digit' }); }

function getSunPosition(date) {
  var jd = date.getTime() / 86400000 + 2440587.5, n = jd - 2451545.0;
  var L = (280.460 + 0.9856474 * n) % 360, g = (357.528 + 0.9856003 * n) % 360;
  var lambda = L + 1.915 * Math.sin(g * deg2rad) + 0.020 * Math.sin(2 * g * deg2rad);
  var eps = 23.439 - 0.0000004 * n;
  var decl = Math.asin(Math.sin(eps * deg2rad) * Math.sin(lambda * deg2rad)) * rad2deg;
  var utcH = date.getUTCHours() + date.getUTCMinutes() / 60;
  return { lat: decl, lon: wrap180(-15 * (utcH - 12) - (L - lambda)) };
}

function getTerminator(sunLat, sunLon) {
  var pts = [], r = clamp(sunLat, -89.99, 89.99) * deg2rad, t = Math.tan(r);
  for (var lon = -180; lon <= 180; lon += 2) {
    var lat = Math.abs(t) < 1e-6 ? 0 : Math.atan(-Math.cos((lon - sunLon) * deg2rad) / t) * rad2deg;
    pts.push({ lon: lon, lat: clamp(lat, -90, 90) });
  }
  return pts;
}

function propSat(satrec, date) {
  var pv = satellite.propagate(satrec, date);
  if (!pv.position) return null;
  var jd = date.getTime() / 86400000 + 2440587.5;
  return { position: pv.position, gmst: satellite.gstime(jd) };
}

function eciGeo(pos, gmst) {
  var gd = satellite.eciToGeodetic(pos, gmst);
  return { lat: satellite.degreesLat(gd.latitude), lon: wrap180(satellite.degreesLong(gd.longitude)), alt: gd.height };
}

function lookAng(pos, obs, gmst) {
  var gd = { latitude: obs.lat * deg2rad, longitude: obs.lon * deg2rad, height: obs.alt / 1000 };
  var lk = satellite.ecfToLookAngles(gd, satellite.eciToEcf(pos, gmst));
  return { az: (lk.azimuth * rad2deg + 360) % 360, el: lk.elevation * rad2deg, range: lk.rangeSat };
}

